{
  "norad_id": 63143,
  "name": "STARLINK-11579 [DTC]",
  "history": [
    {
      "epoch": "2026-03-28T11:53:58.937856",
      "apogee_km": 357.1157562666631,
      "perigee_km": 355.92493415488207,
      "latitude_deg": 7.661961213814583,
      "longitude_deg": -178.1011801599525,
      "semi_major_axis_km": 6734.657345210772,
      "eccentricity": 8.841e-05,
      "inclination_deg": 43.002,
      "raan_deg": 137.0187,
      "arg_perigee_deg": 291.3542,
      "mean_anomaly_deg": 68.7232,
      "mean_motion_rev_day": 15.70831154
    }
  ]
}